ONEWEB-0685             
1 54679U 22166AP  25362.77519002 -.00000006  00000+0 -46671-4 0  9992
2 54679  87.9227 277.9807 0001929  85.3856 274.7498 13.21835812148901
ONEWEB-0712             
1 54680U 22166AQ  25362.67482818 -.00000039  00000+0 -13570-3 0  9994
2 54680  87.9049 262.7226 0002058  64.2214 295.9129 13.16592861149624
ONEWEB-0714             
1 54681U 22166AR  25362.78141966  .00000012  00000+0 -22427-5 0  9996
2 54681  87.9229 277.9735 0001948  75.7942 284.3408 13.21825961149022
ONEWEB-0532             
1 55140U 23004A   25362.63259244  .00000037  00000+0  62984-4 0  9999
2 55140  87.9104  39.7687 0001850 110.1526 249.9804 13.17648625145128
ONEWEB-0533             
1 55141U 23004B   25362.76239340  .00000326  00000+0  87192-3 0  9997
2 55141  87.8930  24.5135 0001952  92.5966 267.5386 13.12442980145705
ONEWEB-0541             
1 55142U 23004C   25362.65901492 -.00000071  00000+0 -23603-3 0  9996
2 55142  87.8849  55.0032 0001664 103.6471 256.4843 13.11417930143591
ONEWEB-0543             
1 55143U 23004D   25362.74518862 -.00001093  00000+0 -28045-2 0  9991
2 55143  87.9154   9.3383 0002001  81.4456 278.6903 13.18689796147231
ONEWEB-0544             
1 55144U 23004E   25362.73861772  .00000108  00000+0  24070-3 0  9991
2 55144  87.9160   9.3311 0001584  84.9367 275.1946 13.18685335147238
